NORAD_CAT_ID,OBJECT_NAME,OBJECT_TYPE,EPOCH,MEAN_MOTION,ECCENTRICITY,INCLINATION,RA_OF_ASC_NODE,ARG_OF_PERICENTER,MEAN_ANOMALY,BSTAR,MEAN_MOTION_DOT,MEAN_MOTION_DDOT,TLE_LINE0,TLE_LINE1,TLE_LINE2,SEMIMAJOR_AXIS,PERIOD,APOGEE,PERIGEE,DECAYED
53273.0,STARLINK-4051,PAYLOAD,2024-06-08 08:19:10,15.08840104,0.0001239,53.2162,174.2416,83.532,276.5813,0.00010214,1.338e-05,0.0,0 STARLINK-4051,1 53273U 22086AH  24160.34665379  .00001338  00000-0  10214-3 0  9990,2 53273  53.2162 174.2416 0001239  83.5320 276.5813 15.08840104104673,6917.88,95.438,540.602,538.888,0.0
53273.0,STARLINK-4051,PAYLOAD,2024-06-08 17:51:29,15.08840619,0.0001252,53.2161,172.4572,81.1354,278.978,8.5631e-05,1.075e-05,0.0,0 STARLINK-4051,1 53273U 22086AH  24160.74409395  .00001075  00000-0  85631-4 0  9992,2 53273  53.2161 172.4572 0001252  81.1354 278.9780 15.08840619104738,6917.878,95.438,540.61,538.877,0.0
53273.0,STARLINK-4051,PAYLOAD,2024-06-09 09:45:21,15.08837249,0.000137,53.2166,169.4843,82.219,277.8958,7.7387e-06,-1.65e-06,0.0,0 STARLINK-4051,1 53273U 22086AH  24161.40649961 -.00000165  00000-0  77387-5 0  9991,2 53273  53.2166 169.4843 0001370  82.2190 277.8958 15.08837249104663,6917.889,95.438,540.702,538.806,0.0
53273.0,STARLINK-4051,PAYLOAD,2024-06-09 17:42:17,15.08838239,0.0001414,53.217,167.9976,82.5325,277.5828,1.2523e-05,-8.9e-07,0.0,0 STARLINK-4051,1 53273U 22086AH  24161.73769929 -.00000089  00000-0  12523-4 0  9999,2 53273  53.2170 167.9976 0001414  82.5325 277.5828 15.08838239104887,6917.886,95.438,540.729,538.773,0.0
53273.0,STARLINK-4051,PAYLOAD,2024-06-10 08:00:45,15.08840796,0.0001307,53.2163,165.3217,82.7328,277.3813,1.8949e-05,1.4e-07,0.0,0 STARLINK-4051,1 53273U 22086AH  24162.33385735  .00000014  00000-0  18949-4 0  9990,2 53273  53.2163 165.3217 0001307  82.7328 277.3813 15.08840796104978,6917.878,95.438,540.647,538.839,0.0
53273.0,STARLINK-4051,PAYLOAD,2024-06-10 17:33:03,15.08841883,0.000131,53.2164,163.5375,82.608,277.5061,3.3077e-05,2.39e-06,0.0,0 STARLINK-4051,1 53273U 22086AH  24162.73129596  .00000239  00000-0  33077-4 0  9993,2 53273  53.2164 163.5375 0001310  82.6080 277.5061 15.08841883104865,6917.875,95.437,540.646,538.833,0.0
53273.0,STARLINK-4051,PAYLOAD,2024-06-11 06:16:08,15.08841838,0.0001259,53.2161,161.158,84.0556,276.0579,0.00010885,1.445e-05,0.0,0 STARLINK-4051,1 53273U 22086AH  24163.26121344  .00001445  00000-0  10885-3 0  9996,2 53273  53.2161 161.1580 0001259  84.0556 276.0579 15.08841838105117,6917.875,95.437,540.611,538.869,0.0
53273.0,STARLINK-4051,PAYLOAD,2024-06-12 06:06:56,15.08835674,0.0001285,53.216,156.6972,87.6723,272.4416,2.1728e-05,5.8e-07,0.0,0 STARLINK-4051,1 53273U 22086AH  24164.25482070  .00000058  00000-0  21728-4 0  9990,2 53273  53.2160 156.6972 0001285  87.6723 272.4416 15.08835674105092,6917.894,95.438,540.648,538.87,0.0
53273.0,STARLINK-4051,PAYLOAD,2024-06-12 09:17:42,15.08835949,0.0001326,53.2164,156.1018,92.2923,267.8221,9.0721e-06,-1.44e-06,0.0,0 STARLINK-4051,1 53273U 22086AH  24164.38730100 -.00000144  00000-0  90721-5 0  9991,2 53273  53.2164 156.1018 0001326  92.2923 267.8221 15.08835949105280,6917.893,95.438,540.675,538.84,0.0
53273.0,STARLINK-4051,PAYLOAD,2024-06-13 09:08:29,15.08841242,0.0001379,53.2166,151.6424,92.333,267.782,2.5859e-05,1.24e-06,0.0,0 STARLINK-4051,1 53273U 22086AH  24165.38089720  .00000124  00000-0  25859-4 0  9993,2 53273  53.2166 151.6424 0001379  92.3330 267.7820 15.08841242105269,6917.877,95.437,540.696,538.788,0.0
53273.0,STARLINK-4051,PAYLOAD,2024-06-14 05:48:30,15.08834917,0.0001286,53.2162,147.7763,90.6611,269.4529,5.4289e-05,5.76e-06,0.0,0 STARLINK-4051,1 53273U 22086AH  24166.24202193  .00000576  00000-0  54289-4 0  9990,2 53273  53.2162 147.7763 0001286  90.6611 269.4529 15.08834917105397,6917.896,95.438,540.651,538.871,0.0
53273.0,STARLINK-4051,PAYLOAD,2024-06-14 21:42:22,15.08835747,0.0001338,53.2167,144.8031,90.7957,269.3188,2.5813e-05,1.23e-06,0.0,0 STARLINK-4051,1 53273U 22086AH  24166.90442387  .00000123  00000-0  25813-4 0  9993,2 53273  53.2167 144.8031 0001338  90.7957 269.3188 15.08835747105662,6917.893,95.438,540.684,538.833,0.0
53273.0,STARLINK-4051,PAYLOAD,2024-06-15 05:39:17,15.08838798,0.0001331,53.2169,143.3167,91.4449,268.6696,2.4928e-05,1.09e-06,0.0,0 STARLINK-4051,1 53273U 22086AH  24167.23562264  .00000109  00000-0  24928-4 0  9997,2 53273  53.2169 143.3167 0001331  91.4449 268.6696 15.08838798105716,6917.884,95.438,540.67,538.828,0.0
53273.0,STARLINK-4051,PAYLOAD,2024-06-15 15:11:36,15.08837189,0.0001315,53.2169,141.5326,90.53,269.5842,1.9133e-05,1.7e-07,0.0,0 STARLINK-4051,1 53273U 22086AH  24167.63306444  .00000017  00000-0  19133-4 0  9997,2 53273  53.2169 141.5326 0001315  90.5300 269.5842 15.08837189105773,6917.889,95.438,540.664,538.844,0.0
53273.0,STARLINK-4051,PAYLOAD,2024-06-16 05:30:04,15.08840131,0.000133,53.2167,138.857,95.5516,264.5627,5.3435e-05,5.63e-06,0.0,0 STARLINK-4051,1 53273U 22086AH  24168.22922274  .00000563  00000-0  53435-4 0  9997,2 53273  53.2167 138.8570 0001330  95.5516 264.5627 15.08840131105869,6917.88,95.438,540.665,538.825,0.0
53273.0,STARLINK-4051,PAYLOAD,2024-06-17 14:53:11,15.08835427,0.0001401,53.2166,132.6118,82.2147,277.9004,8.9984e-06,-1.45e-06,0.0,0 STARLINK-4051,1 53273U 22086AH  24169.62026967 -.00000145  00000-0  89984-5 0  9992,2 53273  53.2166 132.6118 0001401  82.2147 277.9004 15.08835427106073,6917.894,95.438,540.729,538.79,0.0
53273.0,STARLINK-4051,PAYLOAD,2024-06-18 06:47:02,15.08841859,0.0001519,53.2172,129.636,86.3441,273.7725,3.9635e-05,3.43e-06,0.0,0 STARLINK-4051,1 53273U 22086AH  24170.28266559  .00000343  00000-0  39635-4 0  9995,2 53273  53.2172 129.6360 0001519  86.3441 273.7725 15.08841859106000,6917.875,95.437,540.791,538.689,0.0
53273.0,STARLINK-4051,PAYLOAD,2024-06-18 14:43:58,15.08838952,0.0001513,53.2173,128.1497,85.641,274.4755,4.1525e-05,3.73e-06,0.0,0 STARLINK-4051,1 53273U 22086AH  24170.61386716  .00000373  00000-0  41525-4 0  9994,2 53273  53.2173 128.1497 0001513  85.6410 274.4755 15.08838952106223,6917.884,95.438,540.795,538.702,0.0
53273.0,STARLINK-4051,PAYLOAD,2024-06-19 14:34:45,15.08838583,0.0001427,53.2171,123.6881,97.4854,262.63,4.9926e-05,5.07e-06,0.0,0 STARLINK-4051,1 53273U 22086AH  24171.60746675  .00000507  00000-0  49926-4 0  9990,2 53273  53.2171 123.6881 0001427  97.4854 262.6300 15.08838583106376,6917.885,95.438,540.737,538.763,0.0
53273.0,STARLINK-4051,PAYLOAD,2024-06-20 06:28:36,15.08840162,0.0001531,53.2172,120.7144,100.2384,259.8781,1.8923e-05,1.3e-07,0.0,0 STARLINK-4051,1 53273U 22086AH  24172.26986739  .00000013  00000-0  18923-4 0  9995,2 53273  53.2172 120.7144 0001531 100.2384 259.8781 15.08840162106472,6917.88,95.438,540.804,538.686,0.0
53273.0,STARLINK-4051,PAYLOAD,2024-06-20 23:57:51,15.08835702,0.0001601,53.2177,117.4429,104.0548,256.0623,-2.1412e-05,-6.29e-06,0.0,0 STARLINK-4051,1 53273U 22086AH  24172.99851263 -.00000629  00000-0 -21412-4 0  9990,2 53273  53.2177 117.4429 0001601 104.0548 256.0623 15.08835702106410,6917.894,95.438,540.866,538.651,0.0
53273.0,STARLINK-4051,PAYLOAD,2024-06-21 03:08:37,15.08835277,0.0001623,53.2179,116.8483,104.5967,255.5205,-8.4253e-06,-4.22e-06,0.0,0 STARLINK-4051,1 53273U 22086AH  24173.13099263 -.00000422  00000-0 -84253-5 0  9995,2 53273  53.2179 116.8483 0001623 104.5967 255.5205 15.08835277106607,6917.895,95.438,540.883,538.637,0.0
53273.0,STARLINK-4051,PAYLOAD,2024-06-22 01:24:01,15.08838338,0.0001614,53.2179,112.6853,111.7473,248.3691,1.1724e-05,-1.01e-06,0.0,0 STARLINK-4051,1 53273U 22086AH  24174.05835138 -.00000101  00000-0  11724-4 0  9991,2 53273  53.2179 112.6853 0001614 111.7473 248.3691 15.08838338106570,6917.885,95.438,540.867,538.634,0.0
53273.0,STARLINK-4051,PAYLOAD,2024-06-22 18:53:16,15.08834517,0.0001443,53.2177,109.4154,101.68,258.4354,4.3443e-05,4.03e-06,0.0,0 STARLINK-4051,1 53273U 22086AH  24174.78699504  .00000403  00000-0  43443-4 0  9993,2 53273  53.2177 109.4154 0001443 101.6800 258.4354 15.08834517106852,6917.897,95.438,540.76,538.764,0.0
53273.0,STARLINK-4051,PAYLOAD,2024-06-23 04:25:35,15.08839834,0.0001333,53.2173,107.6314,88.5513,271.5632,4.2598e-05,3.9e-06,0.0,0 STARLINK-4051,1 53273U 22086AH  24175.18443302  .00000390  00000-0  42598-4 0  9996,2 53273  53.2173 107.6314 0001333  88.5513 271.5632 15.08839834106748,6917.881,95.438,540.668,538.824,0.0
53273.0,STARLINK-4051,PAYLOAD,2024-06-24 04:16:21,15.08851847,0.0001513,53.2187,103.1689,99.741,260.3753,0.00010507,1.385e-05,0.0,0 STARLINK-4051,1 53273U 22086AH  24176.17802228  .00001385  00000-0  10507-3 0  9991,2 53273  53.2187 103.1689 0001513  99.7410 260.3753 15.08851847106893,6917.844,95.437,540.756,538.663,0.0
53273.0,STARLINK-4051,PAYLOAD,2024-06-25 02:31:46,15.0883762,0.0001909,53.2182,99.0082,61.6199,298.4986,4.3591e-06,-2.19e-06,0.0,0 STARLINK-4051,1 53273U 22086AH  24177.10539840 -.00000219  00000-0  43591-5 0  9999,2 53273  53.2182  99.0082 0001909  61.6199 298.4986 15.08837620107039,6917.888,95.438,541.073,538.432,0.0
53273.0,STARLINK-4051,PAYLOAD,2024-06-26 00:47:09,15.08847752,0.0001826,53.2194,94.842,65.5232,294.5951,-1.4649e-05,-5.21e-06,0.0,0 STARLINK-4051,1 53273U 22086AH  24178.03275234 -.00000521  00000-0 -14649-4 0  9994,2 53273  53.2194  94.8420 0001826  65.5232 294.5951 15.08847752107171,6917.857,95.437,540.985,538.458,0.0
53273.0,STARLINK-4051,PAYLOAD,2024-06-27 00:37:58,15.08833237,0.0002984,53.2183,90.381,34.4168,325.7017,-1.9597e-05,-6e-06,0.0,0 STARLINK-4051,1 53273U 22086AH  24179.02636744 -.00000600  00000-0 -19597-4 0  9996,2 53273  53.2183  90.3810 0002984  34.4168 325.7017 15.08833237107322,6917.901,95.438,541.83,537.702,0.0
53273.0,STARLINK-4051,PAYLOAD,2024-06-27 21:17:58,15.08839756,0.0001293,53.217,86.5217,79.3662,280.7475,-2.4149e-05,-6.72e-06,0.0,0 STARLINK-4051,1 53273U 22086AH  24179.88748110 -.00000672  00000-0 -24149-4 0  9999,2 53273  53.2170  86.5217 0001293  79.3662 280.7475 15.08839756107459,6917.881,95.438,540.641,538.852,0.0
